{
  "type": "FeatureCollection",
  "features": [
    {
      "type": "Feature",
      "properties": {
        "norad_id": 37330,
        "name": "COSMOS 2251 DEB",
        "group": "cosmos-2251-debris",
        "lat": -10.883466137596542,
        "lon": 105.11766198703916,
        "alt_km": 679.9067825739412,
        "timestamp": "2025-12-19T14:48:36.645863+00:00",
        "meta_object_name": "COSMOS 2251 DEB",
        "meta_object_id": "1993-036BKW",
        "meta_epoch": "2025-12-19T04:04:18.721632",
        "meta_mean_motion": 14.59556855,
        "meta_eccentricity": 0.00568213,
        "meta_inclination": 74.0177,
        "meta_ra_of_asc_node": 282.8126,
        "meta_arg_of_pericenter": 129.5084,
        "meta_mean_anomaly": 231.1126,
        "meta_ephemeris_type": 0,
        "meta_classification_type": "U",
        "meta_norad_cat_id": 37330,
        "meta_element_set_no": 999,
        "meta_rev_at_epoch": 86462,
        "meta_bstar": 0.00021895794,
        "meta_mean_motion_dot": 1.033e-05,
        "meta_mean_motion_ddot": 0,
        "tle_line1": "1 37330U 93036BKW 25353.16966113  .00001033  00000+0  21896-3 0  9993",
        "tle_line2": "2 37330  74.0177 282.8126 0056821 129.5084 231.1126 14.59556855864629"
      },
      "geometry": {
        "type": "Point",
        "coordinates": [
          105.11766198703916,
          -10.883466137596542
        ]
      }
    },
    {
      "type": "Feature",
      "properties": {
        "norad_id": 37331,
        "name": "COSMOS 2251 DEB",
        "group": "cosmos-2251-debris",
        "lat": 61.94352664304476,
        "lon": 87.68531314306752,
        "alt_km": 729.0191608346086,
        "timestamp": "2025-12-19T14:48:36.645873+00:00",
        "meta_object_name": "COSMOS 2251 DEB",
        "meta_object_id": "1993-036BKX",
        "meta_epoch": "2025-12-16T21:15:09.521568",
        "meta_mean_motion": 14.35033598,
        "meta_eccentricity": 0.00552693,
        "meta_inclination": 74.0751,
        "meta_ra_of_asc_node": 60.2873,
        "meta_arg_of_pericenter": 73.2754,
        "meta_mean_anomaly": 287.4454,
        "meta_ephemeris_type": 0,
        "meta_classification_type": "U",
        "meta_norad_cat_id": 37331,
        "meta_element_set_no": 999,
        "meta_rev_at_epoch": 84819,
        "meta_bstar": 0.00035206854,
        "meta_mean_motion_dot": 9.96e-06,
        "meta_mean_motion_ddot": 0,
        "tle_line1": "1 37331U 93036BKX 25350.88552687  .00000996  00000+0  35207-3 0  9995",
        "tle_line2": "2 37331  74.0751  60.2873 0055269  73.2754 287.4454 14.35033598848199"
      },
      "geometry": {
        "type": "Point",
        "coordinates": [
          87.68531314306752,
          61.94352664304476
        ]
      }
    },
    {
      "type": "Feature",
      "properties": {
        "norad_id": 37336,
        "name": "COSMOS 2251 DEB",
        "group": "cosmos-2251-debris",
        "lat": -9.010692024854764,
        "lon": -43.9418650484416,
        "alt_km": 771.1626346068388,
        "timestamp": "2025-12-19T14:48:36.645883+00:00",
        "meta_object_name": "COSMOS 2251 DEB",
        "meta_object_id": "1993-036BLC",
        "meta_epoch": "2025-12-17T07:33:13.175712",
        "meta_mean_motion": 14.32760586,
        "meta_eccentricity": 0.00290162,
        "meta_inclination": 74.0414,
        "meta_ra_of_asc_node": 322.8603,
        "meta_arg_of_pericenter": 39.1846,
        "meta_mean_anomaly": 321.1399,
        "meta_ephemeris_type": 0,
        "meta_classification_type": "U",
        "meta_norad_cat_id": 37336,
        "meta_element_set_no": 999,
        "meta_rev_at_epoch": 65185,
        "meta_bstar": 6.9199726e-05,
        "meta_mean_motion_dot": 1.63e-06,
        "meta_mean_motion_ddot": 0,
        "tle_line1": "1 37336U 93036BLC 25351.31473583  .00000163  00000+0  69200-4 0  9993",
        "tle_line2": "2 37336  74.0414 322.8603 0029016  39.1846 321.1399 14.32760586651852"
      },
      "geometry": {
        "type": "Point",
        "coordinates": [
          -43.9418650484416,
          -9.010692024854764
        ]
      }
    },
    {
      "type": "Feature",
      "properties": {
        "norad_id": 37340,
        "name": "COSMOS 2251 DEB",
        "group": "cosmos-2251-debris",
        "lat": -43.726449577971536,
        "lon": -111.39935326802313,
        "alt_km": 765.6411353382282,
        "timestamp": "2025-12-19T14:48:36.645893+00:00",
        "meta_object_name": "COSMOS 2251 DEB",
        "meta_object_id": "1993-036BLG",
        "meta_epoch": "2025-12-19T03:19:36.196032",
        "meta_mean_motion": 14.36930541,
        "meta_eccentricity": 0.00180628,
        "meta_inclination": 74.0254,
        "meta_ra_of_asc_node": 265.3825,
        "meta_arg_of_pericenter": 358.9051,
        "meta_mean_anomaly": 1.206,
        "meta_ephemeris_type": 0,
        "meta_classification_type": "U",
        "meta_norad_cat_id": 37340,
        "meta_element_set_no": 999,
        "meta_rev_at_epoch": 84159,
        "meta_bstar": 0.00014760605,
        "meta_mean_motion_dot": 4.11e-06,
        "meta_mean_motion_ddot": 0,
        "tle_line1": "1 37340U 93036BLG 25353.13861338  .00000411  00000+0  14761-3 0  9996",
        "tle_line2": "2 37340  74.0254 265.3825 0018062 358.9051   1.2060 14.36930541841592"
      },
      "geometry": {
        "type": "Point",
        "coordinates": [
          -111.39935326802313,
          -43.726449577971536
        ]
      }
    },
    {
      "type": "Feature",
      "properties": {
        "norad_id": 37483,
        "name": "COSMOS 2251 DEB",
        "group": "cosmos-2251-debris",
        "lat": -47.51434799926798,
        "lon": -31.203638265037327,
        "alt_km": 770.2377349369399,
        "timestamp": "2025-12-19T14:48:36.645904+00:00",
        "meta_object_name": "COSMOS 2251 DEB",
        "meta_object_id": "1993-036BLL",
        "meta_epoch": "2025-12-17T01:51:56.048256",
        "meta_mean_motion": 14.43563057,
        "meta_eccentricity": 0.00933386,
        "meta_inclination": 73.9734,
        "meta_ra_of_asc_node": 135.2418,
        "meta_arg_of_pericenter": 340.7121,
        "meta_mean_anomaly": 19.051,
        "meta_ephemeris_type": 0,
        "meta_classification_type": "U",
        "meta_norad_cat_id": 37483,
        "meta_element_set_no": 999,
        "meta_rev_at_epoch": 65342,
        "meta_bstar": 0.00018193502,
        "meta_mean_motion_dot": 6.2e-06,
        "meta_mean_motion_ddot": 0,
        "tle_line1": "1 37483U 93036BLL 25351.07773204  .00000620  00000+0  18194-3 0  9995",
        "tle_line2": "2 37483  73.9734 135.2418 0093338 340.7121  19.0510 14.43563057653422"
      },
      "geometry": {
        "type": "Point",
        "coordinates": [
          -31.203638265037327,
          -47.51434799926798
        ]
      }
    },
    {
      "type": "Feature",
      "properties": {
        "norad_id": 37484,
        "name": "COSMOS 2251 DEB",
        "group": "cosmos-2251-debris",
        "lat": 68.8524468143121,
        "lon": -115.84146613189984,
        "alt_km": 770.4979434676261,
        "timestamp": "2025-12-19T14:48:36.645914+00:00",
        "meta_object_name": "COSMOS 2251 DEB",
        "meta_object_id": "1993-036BLM",
        "meta_epoch": "2025-12-18T07:38:27.570624",
        "meta_mean_motion": 14.41807924,
        "meta_eccentricity": 0.00394245,
        "meta_inclination": 73.8227,
        "meta_ra_of_asc_node": 197.9673,
        "meta_arg_of_pericenter": 231.9462,
        "meta_mean_anomaly": 306.1628,
        "meta_ephemeris_type": 0,
        "meta_classification_type": "U",
        "meta_norad_cat_id": 37484,
        "meta_element_set_no": 999,
        "meta_rev_at_epoch": 65459,
        "meta_bstar": 0.0005692289,
        "meta_mean_motion_dot": 1.85e-05,
        "meta_mean_motion_ddot": 0,
        "tle_line1": "1 37484U 93036BLM 25352.31837466  .00001850  00000+0  56923-3 0  9993",
        "tle_line2": "2 37484  73.8227 197.9673 0039424 231.9462 306.1628 14.41807924654593"
      },
      "geometry": {
        "type": "Point",
        "coordinates": [
          -115.84146613189984,
          68.8524468143121
        ]
      }
    },
    {
      "type": "Feature",
      "properties": {
        "norad_id": 37486,
        "name": "COSMOS 2251 DEB",
        "group": "cosmos-2251-debris",
        "lat": -6.797852009176926,
        "lon": 100.16520581269458,
        "alt_km": 698.6094160503562,
        "timestamp": "2025-12-19T14:48:36.645925+00:00",
        "meta_object_name": "COSMOS 2251 DEB",
        "meta_object_id": "1993-036BLP",
        "meta_epoch": "2025-12-17T02:32:52.709568",
        "meta_mean_motion": 14.133616,
        "meta_eccentricity": 0.02300438,
        "meta_inclination": 73.6918,
        "meta_ra_of_asc_node": 106.7033,
        "meta_arg_of_pericenter": 334.068,
        "meta_mean_anomaly": 206.8915,
        "meta_ephemeris_type": 0,
        "meta_classification_type": "U",
        "meta_norad_cat_id": 37486,
        "meta_element_set_no": 999,
        "meta_rev_at_epoch": 63431,
        "meta_bstar": 0.0015394853,
        "meta_mean_motion_dot": 3.693e-05,
        "meta_mean_motion_ddot": 0,
        "tle_line1": "1 37486U 93036BLP 25351.10616562  .00003693  00000+0  15395-2 0  9997",
        "tle_line2": "2 37486  73.6918 106.7033 0230043 334.0680 206.8915 14.13361600634313"
      },
      "geometry": {
        "type": "Point",
        "coordinates": [
          100.16520581269458,
          -6.797852009176926
        ]
      }
    }
  ]
}